SENTINEL-6              
1 46984U 20086A   24211.93919733 -.00000064  00000+0 -11208-4 0  9998
2 46984  66.0417 122.4763 0007847 269.9565  90.0551 12.80930090172305
